CCSDS_OMM_VERS = 2.0
CREATION_DATE  = 
ORIGINATOR     = 

OBJECT_NAME    = PROGRESS-MS 32
OBJECT_ID      = 2025-204A
CENTER_NAME    = EARTH
REF_FRAME      = TEME
TIME_SYSTEM    = UTC
MEAN_ELEMENT_THEORY = SGP/SGP4

EPOCH          = 2025-11-12T05:24:49.657536
MEAN_MOTION    = 15.49560899
ECCENTRICITY   = .00041322
INCLINATION    = 51.6334
RA_OF_ASC_NODE = 293.5281
ARG_OF_PERICENTER = 61.4658
MEAN_ANOMALY   = 298.6746

EPHEMERIS_TYPE = 0
CLASSIFICATION_TYPE = U
NORAD_CAT_ID   = 65586
ELEMENT_SET_NO = 999
REV_AT_EPOCH   = 27
BSTAR          = .36008987E-3
MEAN_MOTION_DOT = .19835E-3
MEAN_MOTION_DDOT = 0

CCSDS_OMM_VERS = 2.0
CREATION_DATE  = 
ORIGINATOR     = 

OBJECT_NAME    = CYGNUS NG-23
OBJECT_ID      = 2025-208A
CENTER_NAME    = EARTH
REF_FRAME      = TEME
TIME_SYSTEM    = UTC
MEAN_ELEMENT_THEORY = SGP/SGP4

EPOCH          = 2025-11-12T05:24:49.657536
MEAN_MOTION    = 15.49560899
ECCENTRICITY   = .00041322
INCLINATION    = 51.6334
RA_OF_ASC_NODE = 293.5281
ARG_OF_PERICENTER = 61.4658
MEAN_ANOMALY   = 298.6746

EPHEMERIS_TYPE = 0
CLASSIFICATION_TYPE = U
NORAD_CAT_ID   = 65616
ELEMENT_SET_NO = 999
REV_AT_EPOCH   = 22
BSTAR          = .36008987E-3
MEAN_MOTION_DOT = .19835E-3
MEAN_MOTION_DDOT = 0

CCSDS_OMM_VERS = 2.0
CREATION_DATE  = 
ORIGINATOR     = 

OBJECT_NAME    = DRAGONFLY
OBJECT_ID      = 1998-067XH
CENTER_NAME    = EARTH
REF_FRAME      = TEME
TIME_SYSTEM    = UTC
MEAN_ELEMENT_THEORY = SGP/SGP4

EPOCH          = 2025-11-12T02:56:42.761760
MEAN_MOTION    = 15.62163930
ECCENTRICITY   = .00046153
INCLINATION    = 51.6298
RA_OF_ASC_NODE = 291.3442
ARG_OF_PERICENTER = 112.7856
MEAN_ANOMALY   = 247.3626

EPHEMERIS_TYPE = 0
CLASSIFICATION_TYPE = U
NORAD_CAT_ID   = 65729
ELEMENT_SET_NO = 999
REV_AT_EPOCH   = 836
BSTAR          = .14006501E-2
MEAN_MOTION_DOT = .126999E-2
MEAN_MOTION_DDOT = 0

CCSDS_OMM_VERS = 2.0
CREATION_DATE  = 
ORIGINATOR     = 

OBJECT_NAME    = 1998-067XJ
OBJECT_ID      = 1998-067XJ
CENTER_NAME    = EARTH
REF_FRAME      = TEME
TIME_SYSTEM    = UTC
MEAN_ELEMENT_THEORY = SGP/SGP4

EPOCH          = 2025-11-12T03:36:50.131872
MEAN_MOTION    = 15.75096532
ECCENTRICITY   = .00113468
INCLINATION    = 51.6255
RA_OF_ASC_NODE = 289.2653
ARG_OF_PERICENTER = 100.8027
MEAN_ANOMALY   = 259.4250

EPHEMERIS_TYPE = 0
CLASSIFICATION_TYPE = U
NORAD_CAT_ID   = 65730
ELEMENT_SET_NO = 999
REV_AT_EPOCH   = 839
BSTAR          = .28010365E-2
MEAN_MOTION_DOT = .451587E-2
MEAN_MOTION_DDOT = 0

CCSDS_OMM_VERS = 2.0
CREATION_DATE  = 
ORIGINATOR     = 

OBJECT_NAME    = 1998-067XK
OBJECT_ID      = 1998-067XK
CENTER_NAME    = EARTH
REF_FRAME      = TEME
TIME_SYSTEM    = UTC
MEAN_ELEMENT_THEORY = SGP/SGP4

EPOCH          = 2025-11-12T06:59:14.331840
MEAN_MOTION    = 15.59508438
ECCENTRICITY   = .00055556
INCLINATION    = 51.6313
RA_OF_ASC_NODE = 290.9705
ARG_OF_PERICENTER = 92.3444
MEAN_ANOMALY   = 267.8185

EPHEMERIS_TYPE = 0
CLASSIFICATION_TYPE = U
NORAD_CAT_ID   = 65731
ELEMENT_SET_NO = 999
REV_AT_EPOCH   = 838
BSTAR          = .19583313E-2
MEAN_MOTION_DOT = .1612E-2
MEAN_MOTION_DDOT = 0

CCSDS_OMM_VERS = 2.0
CREATION_DATE  = 
ORIGINATOR     = 

OBJECT_NAME    = RSP-03
OBJECT_ID      = 1998-067XL
CENTER_NAME    = EARTH
REF_FRAME      = TEME
TIME_SYSTEM    = UTC
MEAN_ELEMENT_THEORY = SGP/SGP4

EPOCH          = 2025-11-12T15:43:58.427904
MEAN_MOTION    = 15.60977269
ECCENTRICITY   = .00063
INCLINATION    = 51.6305
RA_OF_ASC_NODE = 288.9039
ARG_OF_PERICENTER = 93.9871
MEAN_ANOMALY   = 266.1842

EPHEMERIS_TYPE = 0
CLASSIFICATION_TYPE = U
NORAD_CAT_ID   = 65732
ELEMENT_SET_NO = 999
REV_AT_EPOCH   = 845
BSTAR          = .16027E-2
MEAN_MOTION_DOT = .139118E-2
MEAN_MOTION_DDOT = 0

CCSDS_OMM_VERS = 2.0
CREATION_DATE  = 
ORIGINATOR     = 

OBJECT_NAME    = GHS-01
OBJECT_ID      = 1998-067XM
CENTER_NAME    = EARTH
REF_FRAME      = TEME
TIME_SYSTEM    = UTC
MEAN_ELEMENT_THEORY = SGP/SGP4

EPOCH          = 2025-11-12T07:12:52.945056
MEAN_MOTION    = 15.63275703
ECCENTRICITY   = .00052914
INCLINATION    = 51.6308
RA_OF_ASC_NODE = 290.2844
ARG_OF_PERICENTER = 112.5768
MEAN_ANOMALY   = 247.5787

EPHEMERIS_TYPE = 0
CLASSIFICATION_TYPE = U
NORAD_CAT_ID   = 65733
ELEMENT_SET_NO = 999
REV_AT_EPOCH   = 840
BSTAR          = .26726882E-2
MEAN_MOTION_DOT = .257762E-2
MEAN_MOTION_DDOT = 0

CCSDS_OMM_VERS = 2.0
CREATION_DATE  = 
ORIGINATOR     = 

OBJECT_NAME    = YOTSUBA-KULOVER
OBJECT_ID      = 1998-067XN
CENTER_NAME    = EARTH
REF_FRAME      = TEME
TIME_SYSTEM    = UTC
MEAN_ELEMENT_THEORY = SGP/SGP4

EPOCH          = 2025-11-12T03:54:02.178144
MEAN_MOTION    = 15.54668545
ECCENTRICITY   = .00025823
INCLINATION    = 51.6314
RA_OF_ASC_NODE = 293.1086
ARG_OF_PERICENTER = 48.1181
MEAN_ANOMALY   = 312.0030

EPHEMERIS_TYPE = 0
CLASSIFICATION_TYPE = U
NORAD_CAT_ID   = 65941
ELEMENT_SET_NO = 999
REV_AT_EPOCH   = 509
BSTAR          = .10667563E-2
MEAN_MOTION_DOT = .72203E-3
MEAN_MOTION_DDOT = 0

CCSDS_OMM_VERS = 2.0
CREATION_DATE  = 
ORIGINATOR     = 

OBJECT_NAME    = BOTAN
OBJECT_ID      = 1998-067XP
CENTER_NAME    = EARTH
REF_FRAME      = TEME
TIME_SYSTEM    = UTC
MEAN_ELEMENT_THEORY = SGP/SGP4

EPOCH          = 2025-11-11T09:05:00.102624
MEAN_MOTION    = 15.55845999
ECCENTRICITY   = .00047999
INCLINATION    = 51.6317
RA_OF_ASC_NODE = 296.8738
ARG_OF_PERICENTER = 56.4340
MEAN_ANOMALY   = 303.7109

EPHEMERIS_TYPE = 0
CLASSIFICATION_TYPE = U
NORAD_CAT_ID   = 65942
ELEMENT_SET_NO = 999
REV_AT_EPOCH   = 497
BSTAR          = .14016534E-2
MEAN_MOTION_DOT = .99617E-3
MEAN_MOTION_DDOT = 0

CCSDS_OMM_VERS = 2.0
CREATION_DATE  = 
ORIGINATOR     = 

OBJECT_NAME    = E-KAGAKU-1
OBJECT_ID      = 1998-067XQ
CENTER_NAME    = EARTH
REF_FRAME      = TEME
TIME_SYSTEM    = UTC
MEAN_ELEMENT_THEORY = SGP/SGP4

EPOCH          = 2025-11-12T03:53:24.664992
MEAN_MOTION    = 15.54657908
ECCENTRICITY   = .0004336
INCLINATION    = 51.6324
RA_OF_ASC_NODE = 293.1065
ARG_OF_PERICENTER = 45.9604
MEAN_ANOMALY   = 314.1744

EPHEMERIS_TYPE = 0
CLASSIFICATION_TYPE = U
NORAD_CAT_ID   = 65943
ELEMENT_SET_NO = 999
REV_AT_EPOCH   = 509
BSTAR          = .98936796E-3
MEAN_MOTION_DOT = .66872E-3
MEAN_MOTION_DDOT = 0

CCSDS_OMM_VERS = 2.0
CREATION_DATE  = 
ORIGINATOR     = 

OBJECT_NAME    = HTV-X1
OBJECT_ID      = 2025-241A
CENTER_NAME    = EARTH
REF_FRAME      = TEME
TIME_SYSTEM    = UTC
MEAN_ELEMENT_THEORY = SGP/SGP4

EPOCH          = 2025-11-12T05:24:49.657536
MEAN_MOTION    = 15.49560899
ECCENTRICITY   = .00041322
INCLINATION    = 51.6334
RA_OF_ASC_NODE = 293.5281
ARG_OF_PERICENTER = 61.4658
MEAN_ANOMALY   = 298.6746

EPHEMERIS_TYPE = 0
CLASSIFICATION_TYPE = U
NORAD_CAT_ID   = 66174
ELEMENT_SET_NO = 999
REV_AT_EPOCH   = 145
BSTAR          = .36008987E-3
MEAN_MOTION_DOT = .19835E-3
MEAN_MOTION_DDOT = 0

